[{"OBJECT_NAME":"STARLINK-33546","OBJECT_ID":"2024-237W","EPOCH":"2026-03-09T10:35:59.782560","MEAN_MOTION":15.27585971,"ECCENTRICITY":0.00012757,"INCLINATION":42.9966,"RA_OF_ASC_NODE":217.7844,"ARG_OF_PERICENTER":277.4764,"MEAN_ANOMALY":82.5943,"EPHEMERIS_TYPE":0,"CLASSIFICATION_TYPE":"U","NORAD_CAT_ID":62287,"ELEMENT_SET_NO":999,"REV_AT_EPOCH":7106,"BSTAR":0.0014051057,"MEAN_MOTION_DOT":0.00038613,"MEAN_MOTION_DDOT":0},{"OBJECT_NAME":"ELECTRON KICK STAGE R\/B","OBJECT_ID":"2024-248B","EPOCH":"2026-03-09T20:49:52.700448","MEAN_MOTION":15.26602112,"ECCENTRICITY":0.00382118,"INCLINATION":97.6105,"RA_OF_ASC_NODE":34.9036,"ARG_OF_PERICENTER":284.4829,"MEAN_ANOMALY":75.2171,"EPHEMERIS_TYPE":0,"CLASSIFICATION_TYPE":"U","NORAD_CAT_ID":62407,"ELEMENT_SET_NO":999,"REV_AT_EPOCH":6727,"BSTAR":0.0006831254,"MEAN_MOTION_DOT":0.00018217,"MEAN_MOTION_DDOT":0}]
